{
  "type": "FeatureCollection",
  "features": [
    {
      "type": "Feature",
      "properties": {
        "norad_id": 34924,
        "name": "COSMOS 2251 DEB",
        "group": "cosmos-2251-debris",
        "lat": 26.243239311545025,
        "lon": -113.8485335564556,
        "alt_km": 653.7099695307688,
        "timestamp": "2025-12-20T16:47:36.680259+00:00",
        "meta_object_name": "COSMOS 2251 DEB",
        "meta_object_id": "1993-036ADV",
        "meta_epoch": "2025-12-20T10:06:43.464960",
        "meta_mean_motion": 14.60094001,
        "meta_eccentricity": 0.005372,
        "meta_inclination": 74.0411,
        "meta_ra_of_asc_node": 74.7925,
        "meta_arg_of_pericenter": 157.5235,
        "meta_mean_anomaly": 332.3117,
        "meta_ephemeris_type": 0,
        "meta_classification_type": "U",
        "meta_norad_cat_id": 34924,
        "meta_element_set_no": 999,
        "meta_rev_at_epoch": 87835,
        "meta_bstar": 0.00056901,
        "meta_mean_motion_dot": 2.762e-05,
        "meta_mean_motion_ddot": 0,
        "tle_line1": "1 34924U 93036ADV 25354.42133640  .00002762  00000+0  56901-3 0  9995",
        "tle_line2": "2 34924  74.0411  74.7925 0053720 157.5235 332.3117 14.60094001878356"
      },
      "geometry": {
        "type": "Point",
        "coordinates": [
          -113.8485335564556,
          26.243239311545025
        ]
      }
    },
    {
      "type": "Feature",
      "properties": {
        "norad_id": 34944,
        "name": "COSMOS 2251 DEB",
        "group": "cosmos-2251-debris",
        "lat": 22.262509678168776,
        "lon": -135.46175067924833,
        "alt_km": 722.0238676669987,
        "timestamp": "2025-12-20T16:47:36.680269+00:00",
        "meta_object_name": "COSMOS 2251 DEB",
        "meta_object_id": "1993-036ADX",
        "meta_epoch": "2025-12-17T02:06:11.847168",
        "meta_mean_motion": 14.14195665,
        "meta_eccentricity": 0.02198727,
        "meta_inclination": 73.7495,
        "meta_ra_of_asc_node": 224.195,
        "meta_arg_of_pericenter": 70.8954,
        "meta_mean_anomaly": 291.5851,
        "meta_ephemeris_type": 0,
        "meta_classification_type": "U",
        "meta_norad_cat_id": 34944,
        "meta_element_set_no": 999,
        "meta_rev_at_epoch": 64144,
        "meta_bstar": 0.00030334686,
        "meta_mean_motion_dot": 7.03e-06,
        "meta_mean_motion_ddot": 0,
        "tle_line1": "1 34944U 93036ADX 25351.08763712  .00000703  00000+0  30335-3 0  9991",
        "tle_line2": "2 34944  73.7495 224.1950 0219872  70.8954 291.5851 14.14195665641448"
      },
      "geometry": {
        "type": "Point",
        "coordinates": [
          -135.46175067924833,
          22.262509678168776
        ]
      }
    },
    {
      "type": "Feature",
      "properties": {
        "norad_id": 34946,
        "name": "COSMOS 2251 DEB",
        "group": "cosmos-2251-debris",
        "lat": 49.653770858022,
        "lon": -13.427283785041078,
        "alt_km": 659.1803162201604,
        "timestamp": "2025-12-20T16:47:36.680279+00:00",
        "meta_object_name": "COSMOS 2251 DEB",
        "meta_object_id": "1993-036ADZ",
        "meta_epoch": "2025-12-19T07:42:37.791072",
        "meta_mean_motion": 14.6202881,
        "meta_eccentricity": 0.0048641,
        "meta_inclination": 74.0227,
        "meta_ra_of_asc_node": 329.5012,
        "meta_arg_of_pericenter": 104.6695,
        "meta_mean_anomaly": 255.9871,
        "meta_ephemeris_type": 0,
        "meta_classification_type": "U",
        "meta_norad_cat_id": 34946,
        "meta_element_set_no": 999,
        "meta_rev_at_epoch": 88305,
        "meta_bstar": 0.00040056,
        "meta_mean_motion_dot": 2.013e-05,
        "meta_mean_motion_ddot": 0,
        "tle_line1": "1 34946U 93036ADZ 25353.32127073  .00002013  00000+0  40056-3 0  9993",
        "tle_line2": "2 34946  74.0227 329.5012 0048641 104.6695 255.9871 14.62028810883059"
      },
      "geometry": {
        "type": "Point",
        "coordinates": [
          -13.427283785041078,
          49.653770858022
        ]
      }
    },
    {
      "type": "Feature",
      "properties": {
        "norad_id": 34949,
        "name": "COSMOS 2251 DEB",
        "group": "cosmos-2251-debris",
        "lat": -60.3974764189052,
        "lon": 63.81590526997206,
        "alt_km": 624.4109086423477,
        "timestamp": "2025-12-20T16:47:36.680289+00:00",
        "meta_object_name": "COSMOS 2251 DEB",
        "meta_object_id": "1993-036AEC",
        "meta_epoch": "2025-12-19T23:10:09.715008",
        "meta_mean_motion": 14.74045348,
        "meta_eccentricity": 0.0080206,
        "meta_inclination": 74.0194,
        "meta_ra_of_asc_node": 95.5416,
        "meta_arg_of_pericenter": 239.3679,
        "meta_mean_anomaly": 119.957,
        "meta_ephemeris_type": 0,
        "meta_classification_type": "U",
        "meta_norad_cat_id": 34949,
        "meta_element_set_no": 999,
        "meta_rev_at_epoch": 88468,
        "meta_bstar": 0.00035104,
        "meta_mean_motion_dot": 2.396e-05,
        "meta_mean_motion_ddot": 0,
        "tle_line1": "1 34949U 93036AEC 25353.96539022  .00002396  00000+0  35104-3 0  9999",
        "tle_line2": "2 34949  74.0194  95.5416 0080206 239.3679 119.9570 14.74045348884687"
      },
      "geometry": {
        "type": "Point",
        "coordinates": [
          63.81590526997206,
          -60.3974764189052
        ]
      }
    },
    {
      "type": "Feature",
      "properties": {
        "norad_id": 34953,
        "name": "COSMOS 2251 DEB",
        "group": "cosmos-2251-debris",
        "lat": 50.88378869284132,
        "lon": 171.6017316322808,
        "alt_km": 682.2285118639866,
        "timestamp": "2025-12-20T16:47:36.680299+00:00",
        "meta_object_name": "COSMOS 2251 DEB",
        "meta_object_id": "1993-036AEG",
        "meta_epoch": "2025-12-20T12:00:10.527840",
        "meta_mean_motion": 14.69018234,
        "meta_eccentricity": 0.0058526,
        "meta_inclination": 74.0926,
        "meta_ra_of_asc_node": 12.518,
        "meta_arg_of_pericenter": 2.3032,
        "meta_mean_anomaly": 148.1108,
        "meta_ephemeris_type": 0,
        "meta_classification_type": "U",
        "meta_norad_cat_id": 34953,
        "meta_element_set_no": 999,
        "meta_rev_at_epoch": 88242,
        "meta_bstar": 0.00052437,
        "meta_mean_motion_dot": 3.125e-05,
        "meta_mean_motion_ddot": 0,
        "tle_line1": "1 34953U 93036AEG 25354.50012185  .00003125  00000+0  52437-3 0  9990",
        "tle_line2": "2 34953  74.0926  12.5180 0058526   2.3032 148.1108 14.69018234882422"
      },
      "geometry": {
        "type": "Point",
        "coordinates": [
          171.6017316322808,
          50.88378869284132
        ]
      }
    },
    {
      "type": "Feature",
      "properties": {
        "norad_id": 34955,
        "name": "COSMOS 2251 DEB",
        "group": "cosmos-2251-debris",
        "lat": 73.20538064617,
        "lon": -58.16983775372574,
        "alt_km": 602.5648894274791,
        "timestamp": "2025-12-20T16:47:36.680309+00:00",
        "meta_object_name": "COSMOS 2251 DEB",
        "meta_object_id": "1993-036AEJ",
        "meta_epoch": "2025-12-20T00:24:58.893120",
        "meta_mean_motion": 15.00658938,
        "meta_eccentricity": 0.00779123,
        "meta_inclination": 74.0366,
        "meta_ra_of_asc_node": 231.6989,
        "meta_arg_of_pericenter": 299.5962,
        "meta_mean_anomaly": 59.7477,
        "meta_ephemeris_type": 0,
        "meta_classification_type": "U",
        "meta_norad_cat_id": 34955,
        "meta_element_set_no": 999,
        "meta_rev_at_epoch": 90143,
        "meta_bstar": 0.00046776562,
        "meta_mean_motion_dot": 6.274e-05,
        "meta_mean_motion_ddot": 0,
        "tle_line1": "1 34955U 93036AEJ 25354.01734830  .00006274  00000+0  46777-3 0  9994",
        "tle_line2": "2 34955  74.0366 231.6989 0077912 299.5962  59.7477 15.00658938901431"
      },
      "geometry": {
        "type": "Point",
        "coordinates": [
          -58.16983775372574,
          73.20538064617
        ]
      }
    },
    {
      "type": "Feature",
      "properties": {
        "norad_id": 34962,
        "name": "COSMOS 2251 DEB",
        "group": "cosmos-2251-debris",
        "lat": 50.99063679318882,
        "lon": -22.208304018875392,
        "alt_km": 744.8502769894158,
        "timestamp": "2025-12-20T16:47:36.680318+00:00",
        "meta_object_name": "COSMOS 2251 DEB",
        "meta_object_id": "1993-036AER",
        "meta_epoch": "2025-12-18T22:43:00.041664",
        "meta_mean_motion": 14.4653439,
        "meta_eccentricity": 0.00188463,
        "meta_inclination": 74.0286,
        "meta_ra_of_asc_node": 181.7701,
        "meta_arg_of_pericenter": 294.3203,
        "meta_mean_anomaly": 65.5987,
        "meta_ephemeris_type": 0,
        "meta_classification_type": "U",
        "meta_norad_cat_id": 34962,
        "meta_element_set_no": 999,
        "meta_rev_at_epoch": 87668,
        "meta_bstar": 0.00031666528,
        "meta_mean_motion_dot": 1.116e-05,
        "meta_mean_motion_ddot": 0,
        "tle_line1": "1 34962U 93036AER 25352.94652826  .00001116  00000+0  31667-3 0  9998",
        "tle_line2": "2 34962  74.0286 181.7701 0018846 294.3203  65.5987 14.46534390876682"
      },
      "geometry": {
        "type": "Point",
        "coordinates": [
          -22.208304018875392,
          50.99063679318882
        ]
      }
    }
  ]
}